CCSDS_OMM_VERS = 2.0
CREATION_DATE  = 
ORIGINATOR     = 

OBJECT_NAME    = STARLINK-34937
OBJECT_ID      = 2025-243R
CENTER_NAME    = EARTH
REF_FRAME      = TEME
TIME_SYSTEM    = UTC
MEAN_ELEMENT_THEORY = SGP/SGP4

EPOCH          = 2025-11-14T18:47:43.473984
MEAN_MOTION    = 15.73455685
ECCENTRICITY   = .0001694
INCLINATION    = 53.1582
RA_OF_ASC_NODE = 60.9404
ARG_OF_PERICENTER = 51.1444
MEAN_ANOMALY   = 308.9726

EPHEMERIS_TYPE = 0
CLASSIFICATION_TYPE = U
NORAD_CAT_ID   = 66192
ELEMENT_SET_NO = 999
REV_AT_EPOCH   = 303
BSTAR          = -.65265E-3
MEAN_MOTION_DOT = -.9223E-3
MEAN_MOTION_DDOT = 0

CCSDS_OMM_VERS = 2.0
CREATION_DATE  = 
ORIGINATOR     = 

OBJECT_NAME    = STARLINK-35197
OBJECT_ID      = 2025-243S
CENTER_NAME    = EARTH
REF_FRAME      = TEME
TIME_SYSTEM    = UTC
MEAN_ELEMENT_THEORY = SGP/SGP4

EPOCH          = 2025-11-14T18:48:17.722080
MEAN_MOTION    = 15.72838530
ECCENTRICITY   = .0000801
INCLINATION    = 53.1584
RA_OF_ASC_NODE = 60.9425
ARG_OF_PERICENTER = 70.2436
MEAN_ANOMALY   = 289.8670

EPHEMERIS_TYPE = 0
CLASSIFICATION_TYPE = U
NORAD_CAT_ID   = 66193
ELEMENT_SET_NO = 999
REV_AT_EPOCH   = 303
BSTAR          = -.7233E-2
MEAN_MOTION_DOT = -.898962E-2
MEAN_MOTION_DDOT = 0

CCSDS_OMM_VERS = 2.0
CREATION_DATE  = 
ORIGINATOR     = 

OBJECT_NAME    = STARLINK-35374
OBJECT_ID      = 2025-243T
CENTER_NAME    = EARTH
REF_FRAME      = TEME
TIME_SYSTEM    = UTC
MEAN_ELEMENT_THEORY = SGP/SGP4

EPOCH          = 2025-11-14T15:45:45.658080
MEAN_MOTION    = 15.73519264
ECCENTRICITY   = .0001159
INCLINATION    = 53.1580
RA_OF_ASC_NODE = 61.5749
ARG_OF_PERICENTER = 6.1740
MEAN_ANOMALY   = 353.9294

EPHEMERIS_TYPE = 0
CLASSIFICATION_TYPE = U
NORAD_CAT_ID   = 66194
ELEMENT_SET_NO = 999
REV_AT_EPOCH   = 301
BSTAR          = -.31013E-2
MEAN_MOTION_DOT = -.420553E-2
MEAN_MOTION_DDOT = 0

CCSDS_OMM_VERS = 2.0
CREATION_DATE  = 
ORIGINATOR     = 

OBJECT_NAME    = STARLINK-34813
OBJECT_ID      = 2025-243U
CENTER_NAME    = EARTH
REF_FRAME      = TEME
TIME_SYSTEM    = UTC
MEAN_ELEMENT_THEORY = SGP/SGP4

EPOCH          = 2025-11-14T18:49:16.186368
MEAN_MOTION    = 15.72844400
ECCENTRICITY   = .0000873
INCLINATION    = 53.1581
RA_OF_ASC_NODE = 60.9480
ARG_OF_PERICENTER = 48.4812
MEAN_ANOMALY   = 311.6282

EPHEMERIS_TYPE = 0
CLASSIFICATION_TYPE = U
NORAD_CAT_ID   = 66195
ELEMENT_SET_NO = 999
REV_AT_EPOCH   = 303
BSTAR          = -.68653E-2
MEAN_MOTION_DOT = -.85783E-2
MEAN_MOTION_DDOT = 0

CCSDS_OMM_VERS = 2.0
CREATION_DATE  = 
ORIGINATOR     = 

OBJECT_NAME    = STARLINK-35409
OBJECT_ID      = 2025-243V
CENTER_NAME    = EARTH
REF_FRAME      = TEME
TIME_SYSTEM    = UTC
MEAN_ELEMENT_THEORY = SGP/SGP4

EPOCH          = 2025-11-14T18:49:42.174624
MEAN_MOTION    = 15.73365870
ECCENTRICITY   = .0003554
INCLINATION    = 53.1574
RA_OF_ASC_NODE = 60.9497
ARG_OF_PERICENTER = 34.7807
MEAN_ANOMALY   = 325.3444

EPHEMERIS_TYPE = 0
CLASSIFICATION_TYPE = U
NORAD_CAT_ID   = 66196
ELEMENT_SET_NO = 999
REV_AT_EPOCH   = 303
BSTAR          = -.66373E-3
MEAN_MOTION_DOT = -.93451E-3
MEAN_MOTION_DDOT = 0

CCSDS_OMM_VERS = 2.0
CREATION_DATE  = 
ORIGINATOR     = 

OBJECT_NAME    = STARLINK-35518
OBJECT_ID      = 2025-243X
CENTER_NAME    = EARTH
REF_FRAME      = TEME
TIME_SYSTEM    = UTC
MEAN_ELEMENT_THEORY = SGP/SGP4

EPOCH          = 2025-11-14T18:50:40.262208
MEAN_MOTION    = 15.73315042
ECCENTRICITY   = .0000998
INCLINATION    = 53.1576
RA_OF_ASC_NODE = 60.9543
ARG_OF_PERICENTER = 47.7641
MEAN_ANOMALY   = 312.3463

EPHEMERIS_TYPE = 0
CLASSIFICATION_TYPE = U
NORAD_CAT_ID   = 66197
ELEMENT_SET_NO = 999
REV_AT_EPOCH   = 303
BSTAR          = -.1695E-2
MEAN_MOTION_DOT = -.23318E-2
MEAN_MOTION_DDOT = 0

CCSDS_OMM_VERS = 2.0
CREATION_DATE  = 
ORIGINATOR     = 

OBJECT_NAME    = STARLINK-35259
OBJECT_ID      = 2025-243W
CENTER_NAME    = EARTH
REF_FRAME      = TEME
TIME_SYSTEM    = UTC
MEAN_ELEMENT_THEORY = SGP/SGP4

EPOCH          = 2025-11-14T18:40:58.632096
MEAN_MOTION    = 15.72962654
ECCENTRICITY   = .0000452
INCLINATION    = 53.1586
RA_OF_ASC_NODE = 60.9069
ARG_OF_PERICENTER = 95.8780
MEAN_ANOMALY   = 264.2290

EPHEMERIS_TYPE = 0
CLASSIFICATION_TYPE = U
NORAD_CAT_ID   = 66198
ELEMENT_SET_NO = 999
REV_AT_EPOCH   = 303
BSTAR          = -.56524E-2
MEAN_MOTION_DOT = -.721628E-2
MEAN_MOTION_DDOT = 0

CCSDS_OMM_VERS = 2.0
CREATION_DATE  = 
ORIGINATOR     = 

OBJECT_NAME    = STARLINK-35509
OBJECT_ID      = 2025-243Y
CENTER_NAME    = EARTH
REF_FRAME      = TEME
TIME_SYSTEM    = UTC
MEAN_ELEMENT_THEORY = SGP/SGP4

EPOCH          = 2025-11-14T15:37:29.188992
MEAN_MOTION    = 15.73435594
ECCENTRICITY   = .0000952
INCLINATION    = 53.1584
RA_OF_ASC_NODE = 61.5349
ARG_OF_PERICENTER = 31.4877
MEAN_ANOMALY   = 328.6200

EPHEMERIS_TYPE = 0
CLASSIFICATION_TYPE = U
NORAD_CAT_ID   = 66199
ELEMENT_SET_NO = 999
REV_AT_EPOCH   = 301
BSTAR          = -.4745E-2
MEAN_MOTION_DOT = -.625536E-2
MEAN_MOTION_DDOT = 0

CCSDS_OMM_VERS = 2.0
CREATION_DATE  = 
ORIGINATOR     = 

OBJECT_NAME    = STARLINK-35551
OBJECT_ID      = 2025-243Z
CENTER_NAME    = EARTH
REF_FRAME      = TEME
TIME_SYSTEM    = UTC
MEAN_ELEMENT_THEORY = SGP/SGP4

EPOCH          = 2025-11-14T17:09:57.559392
MEAN_MOTION    = 15.73163688
ECCENTRICITY   = .0001161
INCLINATION    = 53.1584
RA_OF_ASC_NODE = 61.2249
ARG_OF_PERICENTER = 106.0050
MEAN_ANOMALY   = 254.1097

EPHEMERIS_TYPE = 0
CLASSIFICATION_TYPE = U
NORAD_CAT_ID   = 66200
ELEMENT_SET_NO = 999
REV_AT_EPOCH   = 302
BSTAR          = -.59406E-2
MEAN_MOTION_DOT = -.761517E-2
MEAN_MOTION_DDOT = 0

CCSDS_OMM_VERS = 2.0
CREATION_DATE  = 
ORIGINATOR     = 

OBJECT_NAME    = STARLINK-35543
OBJECT_ID      = 2025-243AA
CENTER_NAME    = EARTH
REF_FRAME      = TEME
TIME_SYSTEM    = UTC
MEAN_ELEMENT_THEORY = SGP/SGP4

EPOCH          = 2025-11-14T18:41:57.323616
MEAN_MOTION    = 15.72946684
ECCENTRICITY   = .0000787
INCLINATION    = 53.1588
RA_OF_ASC_NODE = 60.9113
ARG_OF_PERICENTER = 51.0666
MEAN_ANOMALY   = 309.0424

EPHEMERIS_TYPE = 0
CLASSIFICATION_TYPE = U
NORAD_CAT_ID   = 66201
ELEMENT_SET_NO = 999
REV_AT_EPOCH   = 303
BSTAR          = -.56164E-2
MEAN_MOTION_DOT = -.717011E-2
MEAN_MOTION_DDOT = 0

CCSDS_OMM_VERS = 2.0
CREATION_DATE  = 
ORIGINATOR     = 

OBJECT_NAME    = STARLINK-35534
OBJECT_ID      = 2025-243AB
CENTER_NAME    = EARTH
REF_FRAME      = TEME
TIME_SYSTEM    = UTC
MEAN_ELEMENT_THEORY = SGP/SGP4

EPOCH          = 2025-11-14T18:42:26.766144
MEAN_MOTION    = 15.72890459
ECCENTRICITY   = .0000995
INCLINATION    = 53.1585
RA_OF_ASC_NODE = 60.9134
ARG_OF_PERICENTER = 48.0710
MEAN_ANOMALY   = 312.0394

EPHEMERIS_TYPE = 0
CLASSIFICATION_TYPE = U
NORAD_CAT_ID   = 66202
ELEMENT_SET_NO = 999
REV_AT_EPOCH   = 303
BSTAR          = -.63691E-2
MEAN_MOTION_DOT = -.80282E-2
MEAN_MOTION_DDOT = 0

CCSDS_OMM_VERS = 2.0
CREATION_DATE  = 
ORIGINATOR     = 

OBJECT_NAME    = STARLINK-35548
OBJECT_ID      = 2025-243AC
CENTER_NAME    = EARTH
REF_FRAME      = TEME
TIME_SYSTEM    = UTC
MEAN_ELEMENT_THEORY = SGP/SGP4

EPOCH          = 2025-11-14T18:42:53.138016
MEAN_MOTION    = 15.73270989
ECCENTRICITY   = .0001281
INCLINATION    = 53.1586
RA_OF_ASC_NODE = 60.9160
ARG_OF_PERICENTER = 45.8543
MEAN_ANOMALY   = 314.2582

EPHEMERIS_TYPE = 0
CLASSIFICATION_TYPE = U
NORAD_CAT_ID   = 66203
ELEMENT_SET_NO = 999
REV_AT_EPOCH   = 303
BSTAR          = -.2162E-2
MEAN_MOTION_DOT = -.294579E-2
MEAN_MOTION_DDOT = 0

