STARLINK-34937          
1 66192U 25243R   25318.78314206 -.00092230  00000+0 -65265-3 0  9994
2 66192  53.1582  60.9404 0001694  51.1444 308.9726 15.73455685  3032
STARLINK-35197          
1 66193U 25243S   25318.78353845 -.00898962  00000+0 -72330-2 0  9993
2 66193  53.1584  60.9425 0000801  70.2436 289.8670 15.72838530  3038
STARLINK-35374          
1 66194U 25243T   25318.65677845 -.00420553  00000+0 -31013-2 0  9999
2 66194  53.1580  61.5749 0001159   6.1740 353.9294 15.73519264  3018
STARLINK-34813          
1 66195U 25243U   25318.78421512 -.00857830  00000+0 -68653-2 0  9994
2 66195  53.1581  60.9480 0000873  48.4812 311.6282 15.72844400  3038
STARLINK-35409          
1 66196U 25243V   25318.78451591 -.00093451  00000+0 -66373-3 0  9994
2 66196  53.1574  60.9497 0003554  34.7807 325.3444 15.73365870  3032
STARLINK-35518          
1 66197U 25243X   25318.78518822 -.00233180  00000+0 -16950-2 0  9996
2 66197  53.1576  60.9543 0000998  47.7641 312.3463 15.73315042  3039
STARLINK-35259          
1 66198U 25243W   25318.77845639 -.00721628  00000+0 -56524-2 0  9995
2 66198  53.1586  60.9069 0000452  95.8780 264.2290 15.72962654  3036
STARLINK-35509          
1 66199U 25243Y   25318.65103228 -.00625536  00000+0 -47450-2 0  9993
2 66199  53.1584  61.5349 0000952  31.4877 328.6200 15.73435594  3014
STARLINK-35551          
1 66200U 25243Z   25318.71524953 -.00761517  00000+0 -59406-2 0  9999
2 66200  53.1584  61.2249 0001161 106.0050 254.1097 15.73163688  3028
STARLINK-35543          
1 66201U 25243AA  25318.77913569 -.00717011  00000+0 -56164-2 0  9999
2 66201  53.1588  60.9113 0000787  51.0666 309.0424 15.72946684  3033
STARLINK-35534          
1 66202U 25243AB  25318.77947646 -.00802820  00000+0 -63691-2 0  9999
2 66202  53.1585  60.9134 0000995  48.0710 312.0394 15.72890459  3039
STARLINK-35548          
1 66203U 25243AC  25318.77978169 -.00294579  00000+0 -21620-2 0  9996
2 66203  53.1586  60.9160 0001281  45.8543 314.2582 15.73270989  3032
